STARLINK-35844          
1 66880U 25283C   25347.58336806 -.01240406  45383-3 -35971-2 0  9990
2 66880  53.1558  69.6948 0000800  57.9381 297.5819 15.92309591  2568
STARLINK-35860          
1 66881U 25283D   25347.58336806 -.01254986  46404-3 -36206-2 0  9996
2 66881  53.1553  69.6852 0001190  59.1633 300.6377 15.92410685  2567
STARLINK-35912          
1 66882U 25283E   25347.58336806 -.01265039  47107-3 -36399-2 0  9992
2 66882  53.1556  69.6813 0000919  58.9038 303.0321 15.92464022  2562
STARLINK-35947          
1 66883U 25283F   25347.58336806 -.01264778  47113-3 -36297-2 0  9996
2 66883  53.1556  69.6766 0000705  60.6567 303.5749 15.92514490  2610
STARLINK-36057          
1 66884U 25283G   25347.58336806 -.01276009  47926-3 -36421-2 0  9998
2 66884  53.1555  69.6667 0000896  64.4833 304.2534 15.92620129  2560
STARLINK-35954          
1 66885U 25283H   25347.58336806 -.01272484  47661-3 -36417-2 0  9993
2 66885  53.1553  69.6714 0000929  61.2767 305.2143 15.92568178  2562
STARLINK-35900          
1 66886U 25283J   25347.58336806 -.01280627  48271-3 -36441-2 0  9997
2 66886  53.1554  69.6608 0000867  59.4462 312.1077 15.92679532  2568
STARLINK-35925          
1 66887U 25283K   25347.58336806 -.01287649  48780-3 -36538-2 0  9991
2 66887  53.1554  69.6566 0000921  60.8362 312.8784 15.92734049  2565
STARLINK-35919          
1 66888U 25283L   25347.58336806 -.01288351  48851-3 -36466-2 0  9992
2 66888  53.1555  69.6517 0000949  62.2154 313.6557 15.92782250  2562
STARLINK-35852          
1 66889U 25283M   25347.58336806 -.01301050  49762-3 -36711-2 0  9990
2 66889  53.1550  69.6464 0001038  49.4095 328.9601 15.92843678  2561
STARLINK-35885          
1 66890U 25283N   25347.58336806 -.01300829  49772-3 -36602-2 0  9995
2 66890  53.1552  69.6416 0000962  62.4182 318.3155 15.92897469  2563
STARLINK-35855          
1 66891U 25283P   25347.58336806 -.01314177  50738-3 -36860-2 0  9997
2 66891  53.1553  69.6367 0000890  60.1247 323.0357 15.92960500  2561
STARLINK-35883          
1 66892U 25283Q   25347.58336806 -.01293211  49288-3 -36207-2 0  9996
2 66892  53.1550  69.6313 0001129  51.6331 333.8846 15.92990564  2504
STARLINK-36033          
1 66893U 25283R   25347.58336806 -.01320126  51213-3 -36815-2 0  9999
2 66893  53.1550  69.6269 0001103  50.2346 337.4973 15.93070135  2569
STARLINK-35718          
1 66894U 25283S   25347.58336806 -.01331131  52027-3 -36996-2 0  9992
2 66894  53.1552  69.6212 0001057  50.2681 340.2854 15.93136769  2566
STARLINK-35971          
1 66895U 25283T   25347.58336806 -.00952568  28337-3 -26403-2 0  9994
2 66895  53.1546  69.6106 0000936  66.7641 328.5697 15.93120326  2561
STARLINK-35791          
1 66896U 25283U   25347.58336806 -.01341719  52818-3 -37166-2 0  9995
2 66896  53.1549  69.6152 0001023  50.9540 342.1078 15.93202412  2569
STARLINK-36079          
1 66897U 25283V   25347.58336806 -.01346084  53193-3 -37059-2 0  9994
2 66897  53.1548  69.6056 0000847  60.1684 337.7530 15.93319782  2569
STARLINK-36065          
1 66898U 25283W   25347.58336806 -.01346283  53239-3 -36947-2 0  9992
2 66898  53.1545  69.5996 0001038  46.0443 354.4473 15.93379771  2564
STARLINK-36064          
1 66899U 25283X   25347.58336806 -.01354911  53897-3 -37061-2 0  9998
2 66899  53.1543  69.5948 0001114  50.8433 352.0482 15.93443861  2507
STARLINK-36074          
1 66900U 25283Y   25347.58336806 -.01368249  54906-3 -37295-2 0  9991
2 66900  53.1544  69.5893 0000955  57.8846 347.5399 15.93512534  2563
STARLINK-36043          
1 66901U 25283Z   25347.58336806 -.01379334  55754-3 -37478-2 0  9994
2 66901  53.1545  69.5847 0001170  50.5828 357.0462 15.93574352  2567
STARLINK-35983          
1 66902U 25283AA  25347.58336806 -.01414465  58419-3 -38283-2 0  9996
2 66902  53.1544  69.5795 0000953  57.2069 353.1282 15.93654122  2569
STARLINK-36077          
1 66903U 25283AB  25347.58336806 -.01452975  61401-3 -39193-2 0  9991
2 66903  53.1547  69.5748 0001011  44.9961   7.4920 15.93724220  2566
STARLINK-36059          
1 66904U 25283AC  25347.58336806 -.01488648  64227-3 -40027-2 0  9995
2 66904  53.1544  69.5699 0000970  61.4813 353.2972 15.93790623  2561
STARLINK-36075          
1 66905U 25283AD  25347.58336806 -.01517055  66530-3 -40667-2 0  9990
2 66905  53.1546  69.5660 0001111  52.5268   4.2183 15.93852339  2565
1998-067XS              
1 66906U 98067XS  25347.69601762  .00031569  00000+0  54649-3 0  9999
2 66906  51.6301 137.6756 0003538 207.2651 152.8153 15.50633628  1760
1998-067XT              
1 66907U 98067XT  25347.69272263  .00067037  00000+0  11074-2 0  9993
2 66907  51.6303 137.6541 0004366 232.3065 127.7529 15.51604707  1768
1998-067XU              
1 66908U 98067XU  25347.69234256  .00071410  00000+0  11749-2 0  9993
2 66908  51.6298 137.6510 0004467 231.5910 128.4679 15.51689462  1765
SILVERSAT               
1 66909U 98067XV  25347.69190829  .00073490  00000+0  12038-2 0  9993
2 66909  51.6299 137.6482 0004351 233.7111 126.3477 15.51801579  1762
1998-067XW              
1 66910U 98067XW  25347.69034568  .00065203  00000+0  10657-2 0  9990
2 66910  51.6299 137.6381 0005084 213.9756 146.0909 15.51910394  1766
1998-067XX              
1 66911U 98067XX  25347.68946758  .00077443  00000+0  12499-2 0  9998
2 66911  51.6299 137.6321 0004802 215.3057 144.7616 15.52189321  1756
1998-067XY              
1 66912U 98067XY  25347.69388395  .00053126  00000+0  89167-3 0  9996
2 66912  51.6303 137.6613 0004501 228.8979 131.1622 15.51258263  1753
2025-284A               
1 66913U 25284A   25347.65096287  .00011130  00000+0  52991-3 0  9994
2 66913  80.4042 128.6097 0012038 201.7679 158.3038 15.18989499  1264
2025-284B               
1 66914U 25284B   25347.65059538  .00010952  00000+0  52274-3 0  9998
2 66914  80.4050 128.6113 0008333 244.1066 115.9302 15.18940116  1263
HULIANWANG DIGUI-105    
1 66915U 25285A   25347.69933301 -.00000075  00000+0  48477-4 0  9990
2 66915  50.0041 113.3646 0007937 285.9184  74.0846 14.03715414  1040
HULIANWANG DIGUI-106    
1 66916U 25285B   25347.48377878  .00000135  00000+0  17760-3 0  9995
2 66916  50.0055 114.2227 0006855 274.5312  85.4809 14.04849132  1014
HULIANWANG DIGUI-107    
1 66917U 25285C   25347.69665155 -.00000134  00000+0  11265-4 0  9992
2 66917  50.0017 113.3472 0007545 288.3327  71.6758 14.05580654  1046
HULIANWANG DIGUI-108    
1 66918U 25285D   25347.69601218  .00000105  00000+0  15686-3 0  9990
2 66918  50.0038 113.3463 0006483 283.5013  76.5169 14.05705711  1042
HULIANWANG DIGUI-109    
1 66919U 25285E   25347.69593396 -.00000153  00000+0 -48055-6 0  9992
2 66919  50.0064 113.3495 0007863 294.8472  65.1615 14.05716799  1042
HULIANWANG DIGUI-110    
1 66920U 25285F   25347.69524828  .00000122  00000+0  16655-3 0  9990
2 66920  50.0097 113.3499 0005845 291.7796  68.2487 14.05851648  1041
HULIANWANG DIGUI-111    
1 66921U 25285G   25347.69506969  .00000117  00000+0  16385-3 0  9991
2 66921  50.0111 113.3511 0006988 298.1893  61.8307 14.05885308  1042
HULIANWANG DIGUI-112    
1 66922U 25285H   25346.91263436 -.00000149  00000+0  22420-5 0  9990
2 66922  50.0083 116.5390 0006938 301.8744  58.1486 14.06000264   938
HULIANWANG DIGUI-113    
1 66923U 25285J   25347.69417160  .00000124  00000+0  16720-3 0  9998
2 66923  50.0083 113.3429 0005410 299.4289  60.6076 14.06056860  1046
CZ-8A R/B               
1 66924U 25285K   25347.63926810  .00000067  00000+0  82632-4 0  9992
2 66924  50.0066 112.3253 0119327 109.9084 251.4734 14.30502298  1053
STARLINK-35945          
1 66925U 25286A   25347.58336806 -.01173135  42268-3 -28918-2 0  9999
2 66925  53.1574  46.4495 0000822  63.9528 216.0435 15.95361591  2123
STARLINK-35942          
1 66926U 25286B   25347.58336806 -.01202582  44295-3 -29373-2 0  9997
2 66926  53.1574  46.4431 0000825  58.7569 224.2356 15.95536701  2124
STARLINK-35943          
1 66927U 25286C   25347.58336806 -.01200335  44176-3 -29207-2 0  9996
2 66927  53.1574  46.4406 0000911  60.7164 223.5914 15.95606474  2124
STARLINK-35944          
1 66928U 25286D   25347.58336806 -.01187014  43223-3 -29114-2 0  9994
2 66928  53.1574  46.4459 0000798  57.9357 223.7127 15.95456767  2124
STARLINK-36169          
1 66929U 25286E   25347.58336806 -.01221770  45663-3 -29590-2 0  9991
2 66929  53.1573  46.4375 0001025  53.2502 232.4931 15.95696279  2120
STARLINK-36206          
1 66930U 25286F   25347.58336806 -.01207343  44714-3 -29141-2 0  9991
2 66930  53.1573  46.4346 0000947  54.9319 232.0956 15.95757023  2124
STARLINK-36130          
1 66931U 25286G   25347.58336806 -.01231135  46373-3 -29574-2 0  9991
2 66931  53.1573  46.4317 0000937  54.8755 233.6351 15.95848844  2123
STARLINK-36177          
1 66932U 25286H   25347.58336806 -.01211745  45086-3 -28991-2 0  9999
2 66932  53.1573  46.4286 0000951  61.1381 228.8161 15.95919694  2128
STARLINK-36157          
1 66933U 25286J   25347.58336806 -.01225087  46032-3 -29180-2 0  9997
2 66933  53.1573  46.4257 0000928  59.3664 232.0037 15.96004054  2129
STARLINK-36153          
1 66934U 25286K   25347.58336806 -.01241664  47213-3 -29441-2 0  9999
2 66934  53.1573  46.4224 0000881  54.9386 237.8610 15.96090223  2127
STARLINK-36127          
1 66935U 25286L   25347.58336806 -.01234342  46750-3 -29125-2 0  9999
2 66935  53.1571  46.4192 0000795  60.9134 233.5100 15.96178159  2124
STARLINK-36160          
1 66936U 25286M   25347.58336806 -.01239987  47175-3 -29142-2 0  9991
2 66936  53.1571  46.4166 0000740  61.1562 234.6019 15.96252271  2123
STARLINK-36165          
1 66937U 25286N   25347.58336806 -.01241799  47337-3 -29067-2 0  9992
2 66937  53.1570  46.4134 0000977  56.5915 240.5321 15.96326523  2124
STARLINK-36155          
1 66938U 25286P   25347.58336806 -.01244094  47534-3 -28999-2 0  9996
2 66938  53.1569  46.4105 0000825  61.8843 236.6101 15.96403566  2127
